[{"OBJECT_NAME":"STARLINK-6127","OBJECT_ID":"2023-090AL","EPOCH":"2026-03-09T22:00:01.999584","MEAN_MOTION":15.10631362,"ECCENTRICITY":0.00013021,"INCLINATION":43.0009,"RA_OF_ASC_NODE":260.3418,"ARG_OF_PERICENTER":307.2234,"MEAN_ANOMALY":214.6959,"EPHEMERIS_TYPE":0,"CLASSIFICATION_TYPE":"U","NORAD_CAT_ID":57135,"ELEMENT_SET_NO":999,"REV_AT_EPOCH":578,"BSTAR":0.004658735,"MEAN_MOTION_DOT":0.0007902,"MEAN_MOTION_DDOT":0},{"OBJECT_NAME":"CSC-1","OBJECT_ID":"2023-155G","EPOCH":"2026-03-09T17:46:02.342496","MEAN_MOTION":15.1003596,"ECCENTRICITY":0.00075041,"INCLINATION":97.5446,"RA_OF_ASC_NODE":139.7305,"ARG_OF_PERICENTER":212.9992,"MEAN_ANOMALY":147.077,"EPHEMERIS_TYPE":0,"CLASSIFICATION_TYPE":"U","NORAD_CAT_ID":58022,"ELEMENT_SET_NO":999,"REV_AT_EPOCH":13272,"BSTAR":0.00054556609,"MEAN_MOTION_DOT":8.819e-5,"MEAN_MOTION_DDOT":0}]
